start=new Date('2022-10-07T00:00:00.000Z').valueOf();
sats=[{"PERIOD":"95.919","OBJECT_NAME":"STARLINK-4336","ECCENTRICITY":"0.00020260","PERIAPSIS":"561.583","MEAN_ANOMALY":"307.8756","SEMIMAJOR_AXIS":"6941.124","BSTAR":"0.00007375900000","OBJECT_TYPE":"PAYLOAD","TLE_LINE1":"1 53051U 22077J   22279.49610396  .00000889  00000-0  73759-4 0  9992","COUNTRY_CODE":"US","SITE":"AFWTR","EPOCH":"2022-10-06T11:54:23.382144","GP_ID":"214319121","EPHEMERIS_TYPE":"0","FILE":"3593859","CLASSIFICATION_TYPE":"U","MEAN_MOTION_DDOT":"0.0000000000000","MEAN_ELEMENT_THEORY":"SGP4","INCLINATION":"97.6565","RA_OF_ASC_NODE":"99.2070","TLE_LINE2":"2 53051  97.6565  99.2070 0002026  52.2651 307.8756 15.01267329 13929","NORAD_CAT_ID":"53051","OBJECT_ID":"2022-077J","REV_AT_EPOCH":"1392","MEAN_MOTION_DOT":"0.00000889","REF_FRAME":"TEME","MEAN_MOTION":"15.01267329","TIME_SYSTEM":"UTC","RCS_SIZE":"LARGE","APOAPSIS":"564.396","CENTER_NAME":"EARTH","ELEMENT_SET_NO":"999","LAUNCH_DATE":"2022-07-11","ARG_OF_PERICENTER":"52.2651","DECAY_DATE":null},{"LAUNCH_DATE":"2022-07-11","ARG_OF_PERICENTER":"49.3834","DECAY_DATE":null,"ELEMENT_SET_NO":"999","CENTER_NAME":"EARTH","APOAPSIS":"564.643","MEAN_MOTION_DOT":"0.00005987","REF_FRAME":"TEME","REV_AT_EPOCH":"1339","MEAN_MOTION":"15.01243257","TIME_SYSTEM":"UTC","RCS_SIZE":"LARGE","NORAD_CAT_ID":"53052","TLE_LINE2":"2 53052  97.6574  99.5387 0002276  49.3834 310.7588 15.01243257 13392","MEAN_MOTION_DDOT":"0.0000000000000","MEAN_ELEMENT_THEORY":"SGP4","RA_OF_ASC_NODE":"99.5387","INCLINATION":"97.6574","OBJECT_ID":"2022-077K","FILE":"3594620","CLASSIFICATION_TYPE":"U","EPOCH":"2022-10-06T19:59:37.901184","COUNTRY_CODE":"US","SITE":"AFWTR","EPHEMERIS_TYPE":"0","GP_ID":"214362494","OBJECT_NAME":"STARLINK-4341","PERIAPSIS":"561.484","MEAN_ANOMALY":"310.7588","ECCENTRICITY":"0.00022760","TLE_LINE1":"1 53052U 22077K   22279.83307756  .00005987  00000-0  47054-3 0  9996","SEMIMAJOR_AXIS":"6941.198","BSTAR":"0.00047054000000","OBJECT_TYPE":"PAYLOAD","PERIOD":"95.920"},{"TIME_SYSTEM":"UTC","RCS_SIZE":"LARGE","MEAN_MOTION":"15.01288617","REF_FRAME":"TEME","MEAN_MOTION_DOT":"-0.00005522","REV_AT_EPOCH":"1392","OBJECT_ID":"2022-077L","TLE_LINE2":"2 53053  97.6571  99.2034 0001636  57.5715 302.5667 15.01288617 13929","NORAD_CAT_ID":"53053","RA_OF_ASC_NODE":"99.2034","INCLINATION":"97.6571","MEAN_ELEMENT_THEORY":"SGP4","MEAN_MOTION_DDOT":"0.0000000000000","DECAY_DATE":null,"ARG_OF_PERICENTER":"57.5715","LAUNCH_DATE":"2022-07-11","ELEMENT_SET_NO":"999","CENTER_NAME":"EARTH","APOAPSIS":"564.059","TLE_LINE1":"1 53053U 22077L   22279.49239548 -.00005522  00000-0 -42530-3 0  9993","OBJECT_TYPE":"PAYLOAD","BSTAR":"-0.00042530000000","SEMIMAJOR_AXIS":"6941.059","ECCENTRICITY":"0.00016360","PERIAPSIS":"561.788","MEAN_ANOMALY":"302.5667","OBJECT_NAME":"STARLINK-4337","PERIOD":"95.918","CLASSIFICATION_TYPE":"U","FILE":"3593860","EPHEMERIS_TYPE":"0","GP_ID":"214318649","EPOCH":"2022-10-06T11:49:02.969472","SITE":"AFWTR","COUNTRY_CODE":"US"},{"EPOCH":"2022-10-06T18:20:59.125344","COUNTRY_CODE":"US","SITE":"AFWTR","EPHEMERIS_TYPE":"0","GP_ID":"214361695","FILE":"3594620","CLASSIFICATION_TYPE":"U","PERIOD":"95.920","OBJECT_NAME":"STARLINK-4339","PERIAPSIS":"561.432","ECCENTRICITY":"0.00022910","MEAN_ANOMALY":"319.8303","TLE_LINE1":"1 53054U 22077M   22279.76457321  .00001495  00000-0  12100-3 0  9998","SEMIMAJOR_AXIS":"6941.157","OBJECT_TYPE":"PAYLOAD","BSTAR":"0.00012100000000","CENTER_NAME":"EARTH","ELEMENT_SET_NO":"999","APOAPSIS":"564.612","LAUNCH_DATE":"2022-07-11","ARG_OF_PERICENTER":"40.3091","DECAY_DATE":null,"TLE_LINE2":"2 53054  97.6560  99.4727 0002291  40.3091 319.8303 15.01256653 13387","NORAD_CAT_ID":"53054","MEAN_MOTION_DDOT":"0.0000000000000","MEAN_ELEMENT_THEORY":"SGP4","INCLINATION":"97.6560","RA_OF_ASC_NODE":"99.4727","OBJECT_ID":"2022-077M","MEAN_MOTION_DOT":"0.00001495","REF_FRAME":"TEME","REV_AT_EPOCH":"1338","MEAN_MOTION":"15.01256653","RCS_SIZE":"LARGE","TIME_SYSTEM":"UTC"},{"PERIAPSIS":"561.813","MEAN_ANOMALY":"299.0061","ECCENTRICITY":"0.00016880","OBJECT_NAME":"STARLINK-4338","TLE_LINE1":"1 53055U 22077N   22279.82380904  .00000738  00000-0  62034-4 0  9999","BSTAR":"0.00006203400000","OBJECT_TYPE":"PAYLOAD","SEMIMAJOR_AXIS":"6941.120","PERIOD":"95.919","FILE":"3594620","CLASSIFICATION_TYPE":"U","EPOCH":"2022-10-06T19:46:17.101056","SITE":"AFWTR","COUNTRY_CODE":"US","EPHEMERIS_TYPE":"0","GP_ID":"214361531","REF_FRAME":"TEME","MEAN_MOTION_DOT":"0.00000738","REV_AT_EPOCH":"1339","TIME_SYSTEM":"UTC","RCS_SIZE":"LARGE","MEAN_MOTION":"15.01268863","NORAD_CAT_ID":"53055","TLE_LINE2":"2 53055  97.6560  99.5272 0001688  61.1332 299.0061 15.01268863 13399","RA_OF_ASC_NODE":"99.5272","INCLINATION":"97.6560","MEAN_ELEMENT_THEORY":"SGP4","MEAN_MOTION_DDOT":"0.0000000000000","OBJECT_ID":"2022-077N","LAUNCH_DATE":"2022-07-11","DECAY_DATE":null,"ARG_OF_PERICENTER":"61.1332","CENTER_NAME":"EARTH","ELEMENT_SET_NO":"999","APOAPSIS":"564.156"},{"TLE_LINE2":"2 53056  97.6559  99.5332 0002068  60.4215 299.7215 15.01256401 13393","NORAD_CAT_ID":"53056","RA_OF_ASC_NODE":"99.5332","INCLINATION":"97.6559","MEAN_MOTION_DDOT":"0.0000000000000","MEAN_ELEMENT_THEORY":"SGP4","OBJECT_ID":"2022-077P","REF_FRAME":"TEME","MEAN_MOTION_DOT":"0.00000909","REV_AT_EPOCH":"1339","RCS_SIZE":"LARGE","TIME_SYSTEM":"UTC","MEAN_MOTION":"15.01256401","CENTER_NAME":"EARTH","ELEMENT_SET_NO":"999","APOAPSIS":"564.458","LAUNCH_DATE":"2022-07-11","DECAY_DATE":null,"ARG_OF_PERICENTER":"60.4215","PERIOD":"95.920","PERIAPSIS":"561.588","ECCENTRICITY":"0.00020680","MEAN_ANOMALY":"299.7215","OBJECT_NAME":"STARLINK-4314","TLE_LINE1":"1 53056U 22077P   22279.82752389  .00000909  00000-0  75356-4 0  9991","OBJECT_TYPE":"PAYLOAD","BSTAR":"0.00007535600000","SEMIMAJOR_AXIS":"6941.158","EPOCH":"2022-10-06T19:51:38.064096","SITE":"AFWTR","COUNTRY_CODE":"US","EPHEMERIS_TYPE":"0","GP_ID":"214362254","FILE":"3594620","CLASSIFICATION_TYPE":"U"},{"TLE_LINE1":"1 53057U 22077Q   22279.75345356  .00000712  00000-0  59966-4 0  9997","SEMIMAJOR_AXIS":"6941.121","OBJECT_TYPE":"PAYLOAD","BSTAR":"0.00005996600000","OBJECT_NAME":"STARLINK-4252","MEAN_ANOMALY":"271.6269","PERIAPSIS":"562.052","ECCENTRICITY":"0.00013450","PERIOD":"95.919","CLASSIFICATION_TYPE":"U","FILE":"3594620","EPHEMERIS_TYPE":"0","GP_ID":"214361367","EPOCH":"2022-10-06T18:04:58.387584","COUNTRY_CODE":"US","SITE":"AFWTR","MEAN_MOTION":"15.01268501","TIME_SYSTEM":"UTC","RCS_SIZE":"LARGE","MEAN_MOTION_DOT":"0.00000712","REF_FRAME":"TEME","REV_AT_EPOCH":"1338","OBJECT_ID":"2022-077Q","TLE_LINE2":"2 53057  97.6542  99.4526 0001345  88.5109 271.6269 15.01268501 13381","NORAD_CAT_ID":"53057","MEAN_MOTION_DDOT":"0.0000000000000","MEAN_ELEMENT_THEORY":"SGP4","INCLINATION":"97.6542","RA_OF_ASC_NODE":"99.4526","ARG_OF_PERICENTER":"88.5109","DECAY_DATE":null,"LAUNCH_DATE":"2022-07-11","CENTER_NAME":"EARTH","ELEMENT_SET_NO":"999","APOAPSIS":"563.919"},{"ELEMENT_SET_NO":"999","CENTER_NAME":"EARTH","APOAPSIS":"564.043","LAUNCH_DATE":"2022-07-11","DECAY_DATE":null,"ARG_OF_PERICENTER":"54.5555","TLE_LINE2":"2 53058  97.6562  99.4618 0001484  54.5555 305.5807 15.01259646 13383","NORAD_CAT_ID":"53058","INCLINATION":"97.6562","RA_OF_ASC_NODE":"99.4618","MEAN_ELEMENT_THEORY":"SGP4","MEAN_MOTION_DDOT":"0.0000000000000","OBJECT_ID":"2022-077R","REF_FRAME":"TEME","MEAN_MOTION_DOT":"-0.00000688","REV_AT_EPOCH":"1338","TIME_SYSTEM":"UTC","RCS_SIZE":"LARGE","MEAN_MOTION":"15.01259646","EPOCH":"2022-10-06T18:10:40.408032","SITE":"AFWTR","COUNTRY_CODE":"US","EPHEMERIS_TYPE":"0","GP_ID":"214362112","FILE":"3594620","CLASSIFICATION_TYPE":"U","PERIOD":"95.919","PERIAPSIS":"561.983","MEAN_ANOMALY":"305.5807","ECCENTRICITY":"0.00014840","OBJECT_NAME":"STARLINK-4317","TLE_LINE1":"1 53058U 22077R   22279.75741213 -.00000688  00000-0 -49012-4 0  9995","BSTAR":"-0.00004901200000","OBJECT_TYPE":"PAYLOAD","SEMIMAJOR_AXIS":"6941.148"},{"GP_ID":"214361947","EPHEMERIS_TYPE":"0","COUNTRY_CODE":"US","SITE":"AFWTR","EPOCH":"2022-10-06T19:35:58.543584","CLASSIFICATION_TYPE":"U","FILE":"3594620","PERIOD":"95.919","SEMIMAJOR_AXIS":"6941.142","OBJECT_TYPE":"PAYLOAD","BSTAR":"0.00003261500000","TLE_LINE1":"1 53059U 22077S   22279.81664981  .00000360  00000-0  32615-4 0  9995","OBJECT_NAME":"STARLINK-4320","PERIAPSIS":"562.125","MEAN_ANOMALY":"228.3809","ECCENTRICITY":"0.00012700","APOAPSIS":"563.888","CENTER_NAME":"EARTH","ELEMENT_SET_NO":"999","ARG_OF_PERICENTER":"131.7524","DECAY_DATE":null,"LAUNCH_DATE":"2022-07-11","OBJECT_ID":"2022-077S","MEAN_MOTION_DDOT":"0.0000000000000","MEAN_ELEMENT_THEORY":"SGP4","INCLINATION":"97.6520","RA_OF_ASC_NODE":"99.5108","NORAD_CAT_ID":"53059","TLE_LINE2":"2 53059  97.6520  99.5108 0001270 131.7524 228.3809 15.01261645 13397","MEAN_MOTION":"15.01261645","TIME_SYSTEM":"UTC","RCS_SIZE":"LARGE","REV_AT_EPOCH":"1339","MEAN_MOTION_DOT":"0.00000360","REF_FRAME":"TEME"},{"APOAPSIS":"563.959","ELEMENT_SET_NO":"999","CENTER_NAME":"EARTH","LAUNCH_DATE":"2022-07-11","DECAY_DATE":null,"ARG_OF_PERICENTER":"75.2759","RA_OF_ASC_NODE":"99.4542","INCLINATION":"97.6546","MEAN_ELEMENT_THEORY":"SGP4","MEAN_MOTION_DDOT":"0.0000000000000","TLE_LINE2":"2 53060  97.6546  99.4542 0001366  75.2759 284.8616 15.01260336 13384","NORAD_CAT_ID":"53060","OBJECT_ID":"2022-077T","REV_AT_EPOCH":"1338","REF_FRAME":"TEME","MEAN_MOTION_DOT":"-0.00001366","TIME_SYSTEM":"UTC","RCS_SIZE":"LARGE","MEAN_MOTION":"15.01260336","SITE":"AFWTR","COUNTRY_CODE":"US","EPOCH":"2022-10-06T18:07:39.061344","GP_ID":"214362495","EPHEMERIS_TYPE":"0","FILE":"3594620","CLASSIFICATION_TYPE":"U","PERIOD":"95.919","MEAN_ANOMALY":"284.8616","PERIAPSIS":"562.063","ECCENTRICITY":"0.00013660","OBJECT_NAME":"STARLINK-4305","OBJECT_TYPE":"PAYLOAD","BSTAR":"-0.00010176000000","SEMIMAJOR_AXIS":"6941.146","TLE_LINE1":"1 53060U 22077T   22279.75531321 -.00001366  00000-0 -10176-3 0  9997"}];
